PROBA-1                 
1 26958U 01049B   26116.82391823  .00002795  00000+0  18387-3 0  9998
2 26958  97.9623 123.5671 0053901 297.4289  62.1461 15.07299686335882
CUTE-1 (CO-55)          
1 27844U 03031E   26116.75556575  .00000331  00000+0  16208-3 0  9999
2 27844  98.6757 125.9591 0009078 342.2770  17.8091 14.24302739184352
CUBESAT XI-IV (CO-57)   
1 27848U 03031J   26116.50745738  .00000273  00000+0  13914-3 0  9993
2 27848  98.6789 125.4683 0009403   1.8754 358.2459 14.23592208184025
APRIZESAT 4             
1 35684U 09041D   26116.73788301  .00000957  00000+0  12055-3 0  9999
2 35684  98.1423 191.0335 0044466 127.5357 232.9910 14.83799987903734
APRIZESAT 3             
1 35686U 09041F   26116.66868249  .00001412  00000+0  12708-3 0  9995
2 35686  98.1994 267.4506 0060924 236.6528 122.8851 14.96060223908673
PROBA-2                 
1 36037U 09059B   26116.79599120  .00000226  00000+0  63124-4 0  9999
2 36037  98.2451 300.8620 0014564  80.7768 279.5076 14.54839891874057
APRIZESAT 5             
1 37792U 11044E   26116.79534146  .00000956  00000+0  12806-3 0  9992
2 37792  98.2436  48.3909 0052531 166.7816 193.4786 14.80971114791186
APRIZESAT 6             
1 37793U 11044F   26116.72230458  .00000743  00000+0  11237-3 0  9996
2 37793  98.2390  26.1666 0041852 250.1475 163.7810 14.76844907789553
PROBA-V                 
1 39159U 13021A   26116.81107535  .00000088  00000+0  56733-4 0  9993
2 39159  98.3561  97.9631 0002995 289.9467  70.1390 14.23585717673803
APRIZESAT 7             
1 39416U 13066A   26116.83178331  .00001719  00000+0  17559-3 0  9996
2 39416  97.7668  70.8067 0036582  23.9186 336.3722 14.91436159673576
APRIZESAT 8             
1 39425U 13066K   26116.81926623  .00001125  00000+0  12762-3 0  9991
2 39425  97.8184  65.0207 0047529  94.7774 265.8872 14.87537584672035
BUGSAT-1 (TITA)         
1 40014U 14033E   26116.79342898  .00006978  00000+0  37338-3 0  9992
2 40014  98.0399 206.3644 0028096 359.0191   1.0979 15.15061666648053
SAUDISAT 4              
1 40016U 14033G   26116.85400598  .00000749  00000+0  10561-3 0  9992
2 40016  97.7511 264.7863 0043620 239.4826 120.2077 14.79466224638481
APRIZESAT 9             
1 40018U 14033J   26116.82604522  .00000528  00000+0  85059-4 0  9994
2 40018  97.8980 251.3030 0066285   6.6784 353.5292 14.74155369635994
APRIZESAT 10            
1 40019U 14033K   26116.83350941  .00000596  00000+0  10082-3 0  9997
2 40019  97.9570 244.9628 0080187  78.0662 282.9520 14.70834660634708
TECHDEMOSAT-1 (TDS-1)   
1 40076U 14037H   26116.83376595  .00010140  00000+0  58650-3 0  9996
2 40076  98.3811 103.9971 0008211  84.4101 275.8064 15.12465884640465
TECHNOSAT               
1 42829U 17042E   26116.71463762  .00004279  00000+0  30784-3 0  9997
2 42829  97.4231 276.3599 0016356 269.3070  90.6282 15.04638314478968
FLYING LAPTOP           
1 42831U 17042G   26116.85314734  .00004782  00000+0  37966-3 0  9997
2 42831  97.4460 274.4458 0018029 300.3418  59.6023 15.00817692478758
HAWK-A                  
1 43765U 18099H   26116.68513722  .00009592  00000+0  39169-3 0  9997
2 43765  97.3964 169.6065 0037074 106.6395 253.8918 15.23962145405259
HAWK-B                  
1 43794U 18099AN  26116.71168966  .00008371  00000+0  36174-3 0  9996
2 43794  97.4012 169.1533 0034014 123.0271 237.4241 15.22193212405200
HAWK-C                  
1 43799U 18099AT  26116.71049105  .00011285  00000+0  41350-3 0  9994
2 43799  97.3941 170.2958 0042923 107.4397 253.1541 15.27281822406054
SALSAT                  
1 46495U 20068K   26116.45847697  .00009547  00000+0  34104-3 0  9999
2 46495  97.8864 116.4064 0011542 119.6725 240.5665 15.29015639307456
HAWK-2C                 
1 47502U 21006CT  26116.63088513  .00007889  00000+0  24172-3 0  9997
2 47502  97.2332 161.9811 0007708  39.3499 320.8303 15.34031402291590
HAWK-2A                 
1 47505U 21006CW  26116.69906556  .00007915  00000+0  24242-3 0  9990
2 47505  97.2375 162.6953 0007386  43.3437 316.8386 15.34044659291600
HAWK-2B                 
1 47508U 21006CZ  26116.69614287  .00009034  00000+0  27627-3 0  9994
2 47508  97.2246 161.1088 0007866  40.2481 319.9343 15.34049493291609
HAWK-3B                 
1 48931U 21059BE  26116.48540528  .00058453  00000+0  58338-3 0  9998
2 48931  97.6706 308.4684 0006068 153.2336 206.9237 15.65443847269753
HAWK-3C                 
1 48948U 21059BX  26116.80468514  .00044559  00000+0  44548-3 0  9996
2 48948  97.6837 314.4097 0006461 150.9919 209.1700 15.65456414269809
HAWK-3A                 
1 48957U 21059CG  26116.80455985  .00044926  00000+0  44907-3 0  9991
2 48957  97.6779 311.6567 0006169 150.8386 209.3218 15.65461804269802
HAWK-5C                 
1 52754U 22057Y   26116.86374500  .00020693  00000+0  37693-3 0  9998
2 52754  97.6523 273.3258 0003710 243.2970 116.7901 15.49509549218394
HAWK-5B                 
1 52756U 22057AA  26116.66988132  .00023559  00000+0  42875-3 0  9992
2 52756  97.6528 271.4631 0003906 239.0789 121.0077 15.49507296218360
HAWK-5A                 
1 52757U 22057AB  26116.86337130  .00020866  00000+0  38002-3 0  9996
2 52757  97.6526 272.5021 0004139 240.9018 119.1819 15.49509696218390
HAWK-6B                 
1 55324U 23011A   26116.76333233  .00006136  00000+0  26770-3 0  9992
2 55324  40.4992 291.9028 0002653   0.6822 359.3990 15.22458593180005
HAWK-6C                 
1 55326U 23011C   26116.82829894  .00005474  00000+0  23972-3 0  9999
2 55326  40.4981 288.3686 0003264 348.5942  11.4793 15.22461106180024
HAWK-6A                 
1 55327U 23011D   26116.82833267  .00005461  00000+0  23917-3 0  9994
2 55327  40.4991 289.9879 0002997 344.7862  15.2857 15.22459887180024
HAWK-7A                 
1 56191U 23054P   26116.60624492  .00006887  00000+0  26410-3 0  9999
2 56191  97.2769   5.2571 0002252 178.9231 181.2013 15.26806693169150
HAWK-7B                 
1 56193U 23054R   26116.60617903  .00006972  00000+0  26731-3 0  9991
2 56193  97.2797   3.5024 0001378 173.0538 187.0721 15.26807029169155
HAWK-7C                 
1 56200U 23054Y   26116.67161095  .00006859  00000+0  26302-3 0  9991
2 56200  97.2772   4.3512 0001928 166.3843 193.7448 15.26808700169161
